{
  "type": "FeatureCollection",
  "features": [
    {
      "type": "Feature",
      "geometry": {
        "type": "Point",
        "coordinates": [
          121.0444,
          14.6444
        ]
      },
      "properties": {
        "id": "pag-001",
        "wmoId": "98429",
        "name": "Science Garden",
        "province": "Metro Manila",
        "region": "NCR",
        "islandGroup": "Luzon",
        "latitude": 14.6444,
        "longitude": 121.0444,
        "elevationM": 46,
        "type": "Synoptic",
        "climateType": "Type I"
      }
    },
    {
      "type": "Feature",
      "geometry": {
        "type": "Point",
        "coordinates": [
          120.9694,
          14.5889
        ]
      },
      "properties": {
        "id": "pag-002",
        "wmoId": "98425",
        "name": "Port Area Manila",
        "province": "Metro Manila",
        "region": "NCR",
        "islandGroup": "Luzon",
        "latitude": 14.5889,
        "longitude": 120.9694,
        "elevationM": 15,
        "type": "Synoptic",
        "climateType": "Type I"
      }
    },
    {
      "type": "Feature",
      "geometry": {
        "type": "Point",
        "coordinates": [
          121.0028,
          14.5083
        ]
      },
      "properties": {
        "id": "pag-003",
        "wmoId": "98430",
        "name": "NAIA Pasay",
        "province": "Metro Manila",
        "region": "NCR",
        "islandGroup": "Luzon",
        "latitude": 14.5083,
        "longitude": 121.0028,
        "elevationM": 22,
        "type": "Synoptic",
        "climateType": "Type I"
      }
    },
    {
      "type": "Feature",
      "geometry": {
        "type": "Point",
        "coordinates": [
          120.5989,
          16.4022
        ]
      },
      "properties": {
        "id": "pag-004",
        "wmoId": "98328",
        "name": "Baguio City",
        "province": "Benguet",
        "region": "CAR",
        "islandGroup": "Luzon",
        "latitude": 16.4022,
        "longitude": 120.5989,
        "elevationM": 1500,
        "type": "Synoptic",
        "climateType": "Type I"
      }
    },
    {
      "type": "Feature",
      "geometry": {
        "type": "Point",
        "coordinates": [
          121.9708,
          20.4486
        ]
      },
      "properties": {
        "id": "pag-005",
        "wmoId": "98135",
        "name": "Basco",
        "province": "Batanes",
        "region": "Region II",
        "islandGroup": "Luzon",
        "latitude": 20.4486,
        "longitude": 121.9708,
        "elevationM": 11,
        "type": "Synoptic",
        "climateType": "Type II"
      }
    },
    {
      "type": "Feature",
      "geometry": {
        "type": "Point",
        "coordinates": [
          120.5317,
          18.1794
        ]
      },
      "properties": {
        "id": "pag-006",
        "wmoId": "98223",
        "name": "Laoag City",
        "province": "Ilocos Norte",
        "region": "Region I",
        "islandGroup": "Luzon",
        "latitude": 18.1794,
        "longitude": 120.5317,
        "elevationM": 5,
        "type": "Synoptic",
        "climateType": "Type I"
      }
    },
    {
      "type": "Feature",
      "geometry": {
        "type": "Point",
        "coordinates": [
          120.3756,
          17.5508
        ]
      },
      "properties": {
        "id": "pag-007",
        "wmoId": "98222",
        "name": "Vigan City",
        "province": "Ilocos Sur",
        "region": "Region I",
        "islandGroup": "Luzon",
        "latitude": 17.5508,
        "longitude": 120.3756,
        "elevationM": 24,
        "type": "Synoptic",
        "climateType": "Type I"
      }
    },
    {
      "type": "Feature",
      "geometry": {
        "type": "Point",
        "coordinates": [
          121.6253,
          18.3589
        ]
      },
      "properties": {
        "id": "pag-008",
        "wmoId": "98232",
        "name": "Aparri",
        "province": "Cagayan",
        "region": "Region II",
        "islandGroup": "Luzon",
        "latitude": 18.3589,
        "longitude": 121.6253,
        "elevationM": 3,
        "type": "Synoptic",
        "climateType": "Type III"
      }
    },
    {
      "type": "Feature",
      "geometry": {
        "type": "Point",
        "coordinates": [
          121.7333,
          17.6167
        ]
      },
      "properties": {
        "id": "pag-009",
        "wmoId": "98233",
        "name": "Tuguegarao City",
        "province": "Cagayan",
        "region": "Region II",
        "islandGroup": "Luzon",
        "latitude": 17.6167,
        "longitude": 121.7333,
        "elevationM": 62,
        "type": "Synoptic",
        "climateType": "Type III"
      }
    },
    {
      "type": "Feature",
      "geometry": {
        "type": "Point",
        "coordinates": [
          120.3444,
          16.0442
        ]
      },
      "properties": {
        "id": "pag-010",
        "wmoId": "98325",
        "name": "Dagupan City",
        "province": "Pangasinan",
        "region": "Region I",
        "islandGroup": "Luzon",
        "latitude": 16.0442,
        "longitude": 120.3444,
        "elevationM": 2,
        "type": "Synoptic",
        "climateType": "Type I"
      }
    },
    {
      "type": "Feature",
      "geometry": {
        "type": "Point",
        "coordinates": [
          120.9633,
          15.4883
        ]
      },
      "properties": {
        "id": "pag-011",
        "wmoId": "98330",
        "name": "Cabanatuan City",
        "province": "Nueva Ecija",
        "region": "Region III",
        "islandGroup": "Luzon",
        "latitude": 15.4883,
        "longitude": 120.9633,
        "elevationM": 32,
        "type": "Agromet",
        "climateType": "Type I"
      }
    },
    {
      "type": "Feature",
      "geometry": {
        "type": "Point",
        "coordinates": [
          120.5597,
          15.1856
        ]
      },
      "properties": {
        "id": "pag-012",
        "wmoId": "98327",
        "name": "Clark Airport",
        "province": "Pampanga",
        "region": "Region III",
        "islandGroup": "Luzon",
        "latitude": 15.1856,
        "longitude": 120.5597,
        "elevationM": 148,
        "type": "Synoptic",
        "climateType": "Type I"
      }
    },
    {
      "type": "Feature",
      "geometry": {
        "type": "Point",
        "coordinates": [
          119.9786,
          15.3283
        ]
      },
      "properties": {
        "id": "pag-013",
        "wmoId": "98324",
        "name": "Iba",
        "province": "Zambales",
        "region": "Region III",
        "islandGroup": "Luzon",
        "latitude": 15.3283,
        "longitude": 119.9786,
        "elevationM": 6,
        "type": "Synoptic",
        "climateType": "Type I"
      }
    },
    {
      "type": "Feature",
      "geometry": {
        "type": "Point",
        "coordinates": [
          122.1228,
          16.2736
        ]
      },
      "properties": {
        "id": "pag-014",
        "wmoId": "98336",
        "name": "Casiguran",
        "province": "Aurora",
        "region": "Region III",
        "islandGroup": "Luzon",
        "latitude": 16.2736,
        "longitude": 122.1228,
        "elevationM": 5,
        "type": "Synoptic",
        "climateType": "Type IV"
      }
    },
    {
      "type": "Feature",
      "geometry": {
        "type": "Point",
        "coordinates": [
          120.9117,
          14.4967
        ]
      },
      "properties": {
        "id": "pag-015",
        "wmoId": "98426",
        "name": "Sangley Point",
        "province": "Cavite",
        "region": "Region IV-A",
        "islandGroup": "Luzon",
        "latitude": 14.4967,
        "longitude": 120.9117,
        "elevationM": 2,
        "type": "Synoptic",
        "climateType": "Type I"
      }
    },
    {
      "type": "Feature",
      "geometry": {
        "type": "Point",
        "coordinates": [
          121.0547,
          14.0886
        ]
      },
      "properties": {
        "id": "pag-016",
        "wmoId": "98431",
        "name": "Ambulong",
        "province": "Batangas",
        "region": "Region IV-A",
        "islandGroup": "Luzon",
        "latitude": 14.0886,
        "longitude": 121.0547,
        "elevationM": 11,
        "type": "Agromet",
        "climateType": "Type I"
      }
    },
    {
      "type": "Feature",
      "geometry": {
        "type": "Point",
        "coordinates": [
          121.5936,
          14.025
        ]
      },
      "properties": {
        "id": "pag-017",
        "wmoId": "98434",
        "name": "Tayabas City",
        "province": "Quezon",
        "region": "Region IV-A",
        "islandGroup": "Luzon",
        "latitude": 14.025,
        "longitude": 121.5936,
        "elevationM": 189,
        "type": "Synoptic",
        "climateType": "Type II"
      }
    },
    {
      "type": "Feature",
      "geometry": {
        "type": "Point",
        "coordinates": [
          121.6508,
          14.7431
        ]
      },
      "properties": {
        "id": "pag-018",
        "wmoId": "98435",
        "name": "Infanta",
        "province": "Quezon",
        "region": "Region IV-A",
        "islandGroup": "Luzon",
        "latitude": 14.7431,
        "longitude": 121.6508,
        "elevationM": 6,
        "type": "Synoptic",
        "climateType": "Type II"
      }
    },
    {
      "type": "Feature",
      "geometry": {
        "type": "Point",
        "coordinates": [
          121.1825,
          13.4117
        ]
      },
      "properties": {
        "id": "pag-019",
        "wmoId": "98437",
        "name": "Calapan City",
        "province": "Oriental Mindoro",
        "region": "MIMAROPA",
        "islandGroup": "Luzon",
        "latitude": 13.4117,
        "longitude": 121.1825,
        "elevationM": 3,
        "type": "Synoptic",
        "climateType": "Type III"
      }
    },
    {
      "type": "Feature",
      "geometry": {
        "type": "Point",
        "coordinates": [
          121.0422,
          12.3611
        ]
      },
      "properties": {
        "id": "pag-020",
        "wmoId": "98538",
        "name": "San Jose",
        "province": "Occidental Mindoro",
        "region": "MIMAROPA",
        "islandGroup": "Luzon",
        "latitude": 12.3611,
        "longitude": 121.0422,
        "elevationM": 5,
        "type": "Synoptic",
        "climateType": "Type I"
      }
    },
    {
      "type": "Feature",
      "geometry": {
        "type": "Point",
        "coordinates": [
          120.2017,
          12.0039
        ]
      },
      "properties": {
        "id": "pag-021",
        "wmoId": "98526",
        "name": "Coron",
        "province": "Palawan",
        "region": "MIMAROPA",
        "islandGroup": "Luzon",
        "latitude": 12.0039,
        "longitude": 120.2017,
        "elevationM": 15,
        "type": "Synoptic",
        "climateType": "Type I"
      }
    },
    {
      "type": "Feature",
      "geometry": {
        "type": "Point",
        "coordinates": [
          118.7592,
          9.7425
        ]
      },
      "properties": {
        "id": "pag-022",
        "wmoId": "98618",
        "name": "Puerto Princesa",
        "province": "Palawan",
        "region": "MIMAROPA",
        "islandGroup": "Luzon",
        "latitude": 9.7425,
        "longitude": 118.7592,
        "elevationM": 14,
        "type": "Synoptic",
        "climateType": "Type III"
      }
    },
    {
      "type": "Feature",
      "geometry": {
        "type": "Point",
        "coordinates": [
          121.0189,
          10.8519
        ]
      },
      "properties": {
        "id": "pag-023",
        "wmoId": "98531",
        "name": "Cuyo",
        "province": "Palawan",
        "region": "MIMAROPA",
        "islandGroup": "Luzon",
        "latitude": 10.8519,
        "longitude": 121.0189,
        "elevationM": 4,
        "type": "Synoptic",
        "climateType": "Type I"
      }
    },
    {
      "type": "Feature",
      "geometry": {
        "type": "Point",
        "coordinates": [
          122.9817,
          14.1294
        ]
      },
      "properties": {
        "id": "pag-024",
        "wmoId": "98440",
        "name": "Daet",
        "province": "Camarines Norte",
        "region": "Region V",
        "islandGroup": "Luzon",
        "latitude": 14.1294,
        "longitude": 122.9817,
        "elevationM": 4,
        "type": "Synoptic",
        "climateType": "Type II"
      }
    },
    {
      "type": "Feature",
      "geometry": {
        "type": "Point",
        "coordinates": [
          123.7317,
          13.1558
        ]
      },
      "properties": {
        "id": "pag-025",
        "wmoId": "98444",
        "name": "Legazpi City",
        "province": "Albay",
        "region": "Region V",
        "islandGroup": "Luzon",
        "latitude": 13.1558,
        "longitude": 123.7317,
        "elevationM": 17,
        "type": "Synoptic",
        "climateType": "Type II"
      }
    },
    {
      "type": "Feature",
      "geometry": {
        "type": "Point",
        "coordinates": [
          124.2056,
          13.5786
        ]
      },
      "properties": {
        "id": "pag-026",
        "wmoId": "98446",
        "name": "Virac",
        "province": "Catanduanes",
        "region": "Region V",
        "islandGroup": "Luzon",
        "latitude": 13.5786,
        "longitude": 124.2056,
        "elevationM": 39,
        "type": "Synoptic",
        "climateType": "Type II"
      }
    },
    {
      "type": "Feature",
      "geometry": {
        "type": "Point",
        "coordinates": [
          123.6308,
          12.3686
        ]
      },
      "properties": {
        "id": "pag-027",
        "wmoId": "98543",
        "name": "Masbate City",
        "province": "Masbate",
        "region": "Region V",
        "islandGroup": "Luzon",
        "latitude": 12.3686,
        "longitude": 123.6308,
        "elevationM": 8,
        "type": "Synoptic",
        "climateType": "Type III"
      }
    },
    {
      "type": "Feature",
      "geometry": {
        "type": "Point",
        "coordinates": [
          123.9939,
          12.8469
        ]
      },
      "properties": {
        "id": "pag-028",
        "wmoId": "98548",
        "name": "Juban",
        "province": "Sorsogon",
        "region": "Region V",
        "islandGroup": "Luzon",
        "latitude": 12.8469,
        "longitude": 123.9939,
        "elevationM": 18,
        "type": "Synoptic",
        "climateType": "Type II"
      }
    },
    {
      "type": "Feature",
      "geometry": {
        "type": "Point",
        "coordinates": [
          122.7533,
          11.5975
        ]
      },
      "properties": {
        "id": "pag-029",
        "wmoId": "98536",
        "name": "Roxas City",
        "province": "Capiz",
        "region": "Region VI",
        "islandGroup": "Visayas",
        "latitude": 11.5975,
        "longitude": 122.7533,
        "elevationM": 8,
        "type": "Synoptic",
        "climateType": "Type III"
      }
    },
    {
      "type": "Feature",
      "geometry": {
        "type": "Point",
        "coordinates": [
          122.545,
          10.7067
        ]
      },
      "properties": {
        "id": "pag-030",
        "wmoId": "98637",
        "name": "Iloilo City",
        "province": "Iloilo",
        "region": "Region VI",
        "islandGroup": "Visayas",
        "latitude": 10.7067,
        "longitude": 122.545,
        "elevationM": 8,
        "type": "Synoptic",
        "climateType": "Type I"
      }
    },
    {
      "type": "Feature",
      "geometry": {
        "type": "Point",
        "coordinates": [
          122.9297,
          10.6406
        ]
      },
      "properties": {
        "id": "pag-031",
        "wmoId": "98638",
        "name": "Bacolod City",
        "province": "Negros Occidental",
        "region": "Region VI",
        "islandGroup": "Visayas",
        "latitude": 10.6406,
        "longitude": 122.9297,
        "elevationM": 8,
        "type": "Agromet",
        "climateType": "Type III"
      }
    },
    {
      "type": "Feature",
      "geometry": {
        "type": "Point",
        "coordinates": [
          123.9794,
          10.3108
        ]
      },
      "properties": {
        "id": "pag-032",
        "wmoId": "98646",
        "name": "Mactan Cebu",
        "province": "Cebu",
        "region": "Region VII",
        "islandGroup": "Visayas",
        "latitude": 10.3108,
        "longitude": 123.9794,
        "elevationM": 23,
        "type": "Synoptic",
        "climateType": "Type III"
      }
    },
    {
      "type": "Feature",
      "geometry": {
        "type": "Point",
        "coordinates": [
          123.8542,
          9.6644
        ]
      },
      "properties": {
        "id": "pag-033",
        "wmoId": "98644",
        "name": "Tagbilaran City",
        "province": "Bohol",
        "region": "Region VII",
        "islandGroup": "Visayas",
        "latitude": 9.6644,
        "longitude": 123.8542,
        "elevationM": 12,
        "type": "Synoptic",
        "climateType": "Type IV"
      }
    },
    {
      "type": "Feature",
      "geometry": {
        "type": "Point",
        "coordinates": [
          123.3,
          9.3333
        ]
      },
      "properties": {
        "id": "pag-034",
        "wmoId": "98642",
        "name": "Dumaguete City",
        "province": "Negros Oriental",
        "region": "Region VII",
        "islandGroup": "Visayas",
        "latitude": 9.3333,
        "longitude": 123.3,
        "elevationM": 5,
        "type": "Synoptic",
        "climateType": "Type III"
      }
    },
    {
      "type": "Feature",
      "geometry": {
        "type": "Point",
        "coordinates": [
          124.6369,
          12.5028
        ]
      },
      "properties": {
        "id": "pag-035",
        "wmoId": "98546",
        "name": "Catarman",
        "province": "Northern Samar",
        "region": "Region VIII",
        "islandGroup": "Visayas",
        "latitude": 12.5028,
        "longitude": 124.6369,
        "elevationM": 4,
        "type": "Synoptic",
        "climateType": "Type II"
      }
    },
    {
      "type": "Feature",
      "geometry": {
        "type": "Point",
        "coordinates": [
          124.8778,
          11.7761
        ]
      },
      "properties": {
        "id": "pag-036",
        "wmoId": "98550",
        "name": "Catbalogan City",
        "province": "Samar",
        "region": "Region VIII",
        "islandGroup": "Visayas",
        "latitude": 11.7761,
        "longitude": 124.8778,
        "elevationM": 7,
        "type": "Synoptic",
        "climateType": "Type II"
      }
    },
    {
      "type": "Feature",
      "geometry": {
        "type": "Point",
        "coordinates": [
          125.0289,
          11.2281
        ]
      },
      "properties": {
        "id": "pag-037",
        "wmoId": "98553",
        "name": "Tacloban City",
        "province": "Leyte",
        "region": "Region VIII",
        "islandGroup": "Visayas",
        "latitude": 11.2281,
        "longitude": 125.0289,
        "elevationM": 3,
        "type": "Synoptic",
        "climateType": "Type II"
      }
    },
    {
      "type": "Feature",
      "geometry": {
        "type": "Point",
        "coordinates": [
          125.7333,
          11.0333
        ]
      },
      "properties": {
        "id": "pag-038",
        "wmoId": "98558",
        "name": "Guiuan",
        "province": "Eastern Samar",
        "region": "Region VIII",
        "islandGroup": "Visayas",
        "latitude": 11.0333,
        "longitude": 125.7333,
        "elevationM": 60,
        "type": "Synoptic",
        "climateType": "Type II"
      }
    },
    {
      "type": "Feature",
      "geometry": {
        "type": "Point",
        "coordinates": [
          123.3444,
          8.6014
        ]
      },
      "properties": {
        "id": "pag-039",
        "wmoId": "98741",
        "name": "Dipolog City",
        "province": "Zamboanga del Norte",
        "region": "Region IX",
        "islandGroup": "Mindanao",
        "latitude": 8.6014,
        "longitude": 123.3444,
        "elevationM": 5,
        "type": "Synoptic",
        "climateType": "Type IV"
      }
    },
    {
      "type": "Feature",
      "geometry": {
        "type": "Point",
        "coordinates": [
          122.0647,
          6.9214
        ]
      },
      "properties": {
        "id": "pag-040",
        "wmoId": "98836",
        "name": "Zamboanga City",
        "province": "Zamboanga del Sur",
        "region": "Region IX",
        "islandGroup": "Mindanao",
        "latitude": 6.9214,
        "longitude": 122.0647,
        "elevationM": 6,
        "type": "Synoptic",
        "climateType": "Type III"
      }
    },
    {
      "type": "Feature",
      "geometry": {
        "type": "Point",
        "coordinates": [
          124.6333,
          8.4833
        ]
      },
      "properties": {
        "id": "pag-041",
        "wmoId": "98748",
        "name": "Cagayan de Oro City",
        "province": "Misamis Oriental",
        "region": "Region X",
        "islandGroup": "Mindanao",
        "latitude": 8.4833,
        "longitude": 124.6333,
        "elevationM": 6,
        "type": "Synoptic",
        "climateType": "Type III"
      }
    },
    {
      "type": "Feature",
      "geometry": {
        "type": "Point",
        "coordinates": [
          125.1278,
          8.1569
        ]
      },
      "properties": {
        "id": "pag-042",
        "wmoId": "98751",
        "name": "Malaybalay City",
        "province": "Bukidnon",
        "region": "Region X",
        "islandGroup": "Mindanao",
        "latitude": 8.1569,
        "longitude": 125.1278,
        "elevationM": 626,
        "type": "Synoptic",
        "climateType": "Type IV"
      }
    },
    {
      "type": "Feature",
      "geometry": {
        "type": "Point",
        "coordinates": [
          125.6481,
          7.1264
        ]
      },
      "properties": {
        "id": "pag-043",
        "wmoId": "98755",
        "name": "Davao City",
        "province": "Davao del Sur",
        "region": "Region XI",
        "islandGroup": "Mindanao",
        "latitude": 7.1264,
        "longitude": 125.6481,
        "elevationM": 18,
        "type": "Synoptic",
        "climateType": "Type IV"
      }
    },
    {
      "type": "Feature",
      "geometry": {
        "type": "Point",
        "coordinates": [
          125.0975,
          6.0567
        ]
      },
      "properties": {
        "id": "pag-044",
        "wmoId": "98851",
        "name": "General Santos City",
        "province": "South Cotabato",
        "region": "Region XII",
        "islandGroup": "Mindanao",
        "latitude": 6.0567,
        "longitude": 125.0975,
        "elevationM": 15,
        "type": "Synoptic",
        "climateType": "Type IV"
      }
    },
    {
      "type": "Feature",
      "geometry": {
        "type": "Point",
        "coordinates": [
          124.2372,
          7.2189
        ]
      },
      "properties": {
        "id": "pag-045",
        "wmoId": "98747",
        "name": "Cotabato City",
        "province": "Maguindanao del Norte",
        "region": "BARMM",
        "islandGroup": "Mindanao",
        "latitude": 7.2189,
        "longitude": 124.2372,
        "elevationM": 4,
        "type": "Synoptic",
        "climateType": "Type IV"
      }
    },
    {
      "type": "Feature",
      "geometry": {
        "type": "Point",
        "coordinates": [
          125.4967,
          9.7892
        ]
      },
      "properties": {
        "id": "pag-046",
        "wmoId": "98653",
        "name": "Surigao City",
        "province": "Surigao del Norte",
        "region": "Region XIII",
        "islandGroup": "Mindanao",
        "latitude": 9.7892,
        "longitude": 125.4967,
        "elevationM": 55,
        "type": "Synoptic",
        "climateType": "Type II"
      }
    },
    {
      "type": "Feature",
      "geometry": {
        "type": "Point",
        "coordinates": [
          125.4853,
          8.9514
        ]
      },
      "properties": {
        "id": "pag-047",
        "wmoId": "98752",
        "name": "Butuan City",
        "province": "Agusan del Norte",
        "region": "Region XIII",
        "islandGroup": "Mindanao",
        "latitude": 8.9514,
        "longitude": 125.4853,
        "elevationM": 43,
        "type": "Synoptic",
        "climateType": "Type II"
      }
    },
    {
      "type": "Feature",
      "geometry": {
        "type": "Point",
        "coordinates": [
          126.3333,
          8.3667
        ]
      },
      "properties": {
        "id": "pag-048",
        "wmoId": "98756",
        "name": "Hinatuan",
        "province": "Surigao del Sur",
        "region": "Region XIII",
        "islandGroup": "Mindanao",
        "latitude": 8.3667,
        "longitude": 126.3333,
        "elevationM": 3,
        "type": "Synoptic",
        "climateType": "Type II"
      }
    }
  ]
}